NORAD_CAT_ID,OBJECT_NAME,OBJECT_TYPE,EPOCH,MEAN_MOTION,ECCENTRICITY,INCLINATION,RA_OF_ASC_NODE,ARG_OF_PERICENTER,MEAN_ANOMALY,BSTAR,MEAN_MOTION_DOT,MEAN_MOTION_DDOT,TLE_LINE0,TLE_LINE1,TLE_LINE2,SEMIMAJOR_AXIS,PERIOD,APOGEE,PERIGEE,DECAYED
49136.0,STARLINK-3084,PAYLOAD,2022-09-25 06:07:32,14.98355488,0.0003411,70.0012,214.9703,245.514,114.5663,0.00040591,4.757e-05,0.0,0 STARLINK-3084,1 49136U 21082G   22268.25524093  .00004757  00000-0  40591-3 0  9991,2 49136  70.0012 214.9703 0003411 245.5140 114.5663 14.98355488 57532,6950.114000000001,96.105,574.35,569.6080000000002,0.0
49136.0,STARLINK-3084,PAYLOAD,2022-09-25 14:08:12,14.98348036,0.0003405,70.0012,214.1287,245.6251,114.4553,0.00012008,1.341e-05,0.0,0 STARLINK-3084,1 49136U 21082G   22268.58903915  .00001341  00000-0  12008-3 0  9999,2 49136  70.0012 214.1287 0003405 245.6251 114.4553 14.98348036 57581,6950.137,96.106,574.369,569.636,0.0
49136.0,STARLINK-3084,PAYLOAD,2022-09-26 06:09:33,14.98335105,0.0003528,70.0008,212.4458,245.8177,114.2613,-0.00011567,-1.473e-05,0.0,0 STARLINK-3084,1 49136U 21082G   22269.25664057 -.00001473  00000-0 -11567-3 0  9992,2 49136  70.0008 212.4458 0003528 245.8177 114.2613 14.98335105 57681,6950.177,96.107,574.494,569.59,0.0
49136.0,STARLINK-3084,PAYLOAD,2022-09-26 20:34:45,14.98342643,0.0003469,69.9994,210.9311,245.4956,114.5842,-9.5529e-06,-2.07e-06,0.0,0 STARLINK-3084,1 49136U 21082G   22269.85747671 -.00000207  00000-0 -95529-5 0  9998,2 49136  69.9994 210.9311 0003469 245.4956 114.5842 14.98342643 57770,6950.154,96.106,574.43,569.6080000000002,0.0
49136.0,STARLINK-3084,PAYLOAD,2022-09-27 02:59:17,14.98346538,0.0003456,69.9995,210.2577,244.6816,115.3986,2.8738e-05,2.5e-06,0.0,0 STARLINK-3084,1 49136U 21082G   22270.12451212  .00000250  00000-0  28738-4 0  9996,2 49136  69.9995 210.2577 0003456 244.6816 115.3986 14.98346538 57810,6950.142,96.106,574.409,569.605,0.0
49136.0,STARLINK-3084,PAYLOAD,2022-09-27 19:00:38,14.98337052,0.0003464999999999,70.0013,208.5743,243.4896,116.5908,8.2393e-05,8.900000000000001e-06,0.0,0 STARLINK-3084,1 49136U 21082G   22270.79211063  .00000890  00000-0  82393-4 0  9994,2 49136  70.0013 208.5743 0003465 243.4896 116.5908 14.98337052 57913,6950.170999999999,96.107,574.444,569.628,0.0
49136.0,STARLINK-3084,PAYLOAD,2022-09-27 20:36:46,14.9833785,0.0003523,70.001,208.4061,244.5885,115.491,4.9839e-05,5.02e-06,0.0,0 STARLINK-3084,1 49136U 21082G   22270.85886971  .00000502  00000-0  49839-4 0  9995,2 49136  70.0010 208.4061 0003523 244.5885 115.4910 14.98337850 57925,6950.169,96.106,574.482,569.585,0.0
49136.0,STARLINK-3084,PAYLOAD,2022-09-28 04:37:27,14.98319642,0.0003279,70.0001,207.564,247.479,112.6022,4.6e-05,4.56e-06,0.0,0 STARLINK-3084,1 49136U 21082G   22271.19268374  .00000456  00000-0  46000-4 0  9999,2 49136  70.0001 207.5640 0003279 247.4790 112.6022 14.98319642 57970,6950.225,96.108,574.369,569.811,0.0
49136.0,STARLINK-3084,PAYLOAD,2022-09-28 06:13:35,14.98323901,0.0003492,69.9998,207.3961,245.5849,114.4946,6.8676e-05,7.26e-06,0.0,0 STARLINK-3084,1 49136U 21082G   22271.25944041  .00000726  00000-0  68676-4 0  9991,2 49136  69.9998 207.3961 0003492 245.5849 114.4946 14.98323901 57986,6950.212,96.107,574.504,569.65,0.0
49136.0,STARLINK-3084,PAYLOAD,2022-09-28 20:38:47,14.98330827,0.0003535,69.9998,205.8808,231.9497,128.1343,7.651399999999999e-05,8.2e-06,0.0,0 STARLINK-3084,1 49136U 21082G   22271.86027587  .00000820  00000-0  76514-4 0  9990,2 49136  69.9998 205.8808 0003535 231.9497 128.1343 14.98330827 58074,6950.19,96.107,574.512,569.5980000000002,0.0
49136.0,STARLINK-3084,PAYLOAD,2022-09-29 03:03:19,14.98337025,0.0003418,70.0013,205.2078,245.3696,114.7107,0.00012798,1.435e-05,0.0,0 STARLINK-3084,1 49136U 21082G   22272.12731110  .00001435  00000-0  12798-3 0  9990,2 49136  70.0013 205.2078 0003418 245.3696 114.7107 14.98337025 58119,6950.170999999999,96.107,574.4119999999998,569.661,0.0
49136.0,STARLINK-3084,PAYLOAD,2022-09-29 12:40:08,14.98330741,0.0003319,70.0019,204.197,245.5379,114.5434,1.2e-05,5e-07,0.0,0 STARLINK-3084,1 49136U 21082G   22272.52787217  .00000050  00000-0  12000-4 0  9992,2 49136  70.0019 204.1970 0003319 245.5379 114.5434 14.98330741 58179,6950.191,96.107,574.362,569.749,0.0
49136.0,STARLINK-3084,PAYLOAD,2022-09-30 03:05:20,14.98331829,0.0003447,70.0012,202.6833,244.4753,115.6049,0.00015103,1.7100000000000002e-05,0.0,0 STARLINK-3084,1 49136U 21082G   22273.12871470  .00001710  00000-0  15103-3 0  9994,2 49136  70.0012 202.6833 0003447 244.4753 115.6049 14.98331829 58261,6950.187,96.107,574.448,569.6569999999998,0.0
49136.0,STARLINK-3084,PAYLOAD,2022-09-30 04:41:28,14.98333407,0.0003433,70.0013,202.515,244.5796,115.5008,0.00019187,2.197e-05,0.0,0 STARLINK-3084,1 49136U 21082G   22273.19547419  .00002197  00000-0  19187-3 0  9990,2 49136  70.0013 202.5150 0003433 244.5796 115.5008 14.98333407 58275,6950.182,96.107,574.433,569.661,0.0
49136.0,STARLINK-3084,PAYLOAD,2022-09-30 20:42:48,14.983481,0.0003427,70.0012,200.832,244.4111,115.6694,0.00039672,4.646e-05,0.0,0 STARLINK-3084,1 49136U 21082G   22273.86306620  .00004646  00000-0  39672-3 0  9993,2 49136  70.0012 200.8320 0003427 244.4111 115.6694 14.98348100 58376,6950.137,96.106,574.384,569.62,0.0
49136.0,STARLINK-3084,PAYLOAD,2022-10-01 04:43:29,14.98339559,0.0003331999999999,70.0014,199.99,243.5842,116.4975,0.0002437,2.817e-05,0.0,0 STARLINK-3084,1 49136U 21082G   22274.19686817  .00002817  00000-0  24370-3 0  9996,2 49136  70.0014 199.9900 0003332 243.5842 116.4975 14.98339559 58421,6950.163000000001,96.106,574.344,569.7130000000002,0.0
49136.0,STARLINK-3084,PAYLOAD,2022-10-01 12:44:09,14.98343779,0.0003418,70.0011,199.1483,243.3313,116.7497,0.00036012,4.208e-05,0.0,0 STARLINK-3084,1 49136U 21082G   22274.53066516  .00004208  00000-0  36012-3 0  9994,2 49136  70.0011 199.1483 0003418 243.3313 116.7497 14.98343779 58478,6950.15,96.106,574.391,569.64,0.0
49136.0,STARLINK-3084,PAYLOAD,2022-10-01 20:44:49,14.98338041,0.0003455,70.0014,198.3073,240.0137,120.068,0.00017405,1.985e-05,0.0,0 STARLINK-3084,1 49136U 21082G   22274.86446570  .00001985  00000-0  17405-3 0  9996,2 49136  70.0014 198.3073 0003455 240.0137 120.0680 14.98338041 58520,6950.168000000002,96.106,574.434,569.632,0.0
49136.0,STARLINK-3084,PAYLOAD,2022-10-02 04:45:30,14.98325167,0.0003444999999999,70.0015,197.4657,244.4191,115.6613,-0.00036954,-4.499e-05,0.0,0 STARLINK-3084,1 49136U 21082G   22275.19826733 -.00004499  00000-0 -36954-3 0  9991,2 49136  70.0015 197.4657 0003445 244.4191 115.6613 14.98325167 58572,6950.208000000001,96.107,574.467,569.678,0.0
49136.0,STARLINK-3084,PAYLOAD,2022-10-02 20:46:51,14.98330711,0.0003475,70.0013,195.7831,244.995,115.0849,0.00077611,9.18e-05,0.0,0 STARLINK-3084,1 49136U 21082G   22275.86587041  .00009180  00000-0  77611-3 0  9996,2 49136  70.0013 195.7831 0003475 244.9950 115.0849 14.98330711 58673,6950.191,96.107,574.471,569.641,0.0
49136.0,STARLINK-3084,PAYLOAD,2022-10-03 04:47:31,14.98347004,0.0003461999999999,70.0011,194.9412,243.8665,116.2138,0.0016591999999999,0.00019769,0.0,0 STARLINK-3084,1 49136U 21082G   22276.19966913  .00019769  00000-0  16592-2 0  9996,2 49136  70.0011 194.9412 0003462 243.8665 116.2138 14.98347004 58727,6950.14,96.106,574.411,569.599,0.0
49136.0,STARLINK-3084,PAYLOAD,2022-10-03 12:48:11,14.98354488,0.0003407,70.0011,194.0997,244.228,115.8527,0.0016090999999999,0.00019172,0.0,0 STARLINK-3084,1 49136U 21082G   22276.53346583  .00019172  00000-0  16091-2 0  9991,2 49136  70.0011 194.0997 0003407 244.2280 115.8527 14.98354488 58779,6950.1169999999975,96.105,574.35,569.614,0.0
49136.0,STARLINK-3084,PAYLOAD,2022-10-03 20:48:51,14.98347787,0.0003476,70.0014,193.2587,237.8981,122.184,0.00062724,7.403e-05,0.0,0 STARLINK-3084,1 49136U 21082G   22276.86726313  .00007403  00000-0  62724-3 0  9999,2 49136  70.0014 193.2587 0003476 237.8981 122.1840 14.98347787 58829,6950.138000000001,96.106,574.419,569.587,0.0
49136.0,STARLINK-3084,PAYLOAD,2022-10-04 04:49:31,14.98350516,0.0003376999999999,70.0012,192.4167,242.9696,117.1119,0.000606,7.149e-05,0.0,0 STARLINK-3084,1 49136U 21082G   22277.20105970  .00007149  00000-0  60600-3 0  9996,2 49136  70.0012 192.4167 0003377 242.9696 117.1119 14.98350516 58874,6950.129,96.106,574.342,569.6469999999998,0.0
49136.0,STARLINK-3084,PAYLOAD,2022-10-05 03:15:25,14.98323351,0.0003316,70.0014,190.0603,243.6466,116.4352,-0.00024543,-3.02e-05,0.0,0 STARLINK-3084,1 49136U 21082G   22278.13570646 -.00003020  00000-0 -24543-3 0  9997,2 49136  70.0014 190.0603 0003316 243.6466 116.4352 14.98323351 59016,6950.2130000000025,96.107,574.383,569.774,0.0
49136.0,STARLINK-3084,PAYLOAD,2022-10-05 20:52:54,14.98330426,0.0003429,70.0006,188.2097,237.814,122.2687,-0.000136,-1.715e-05,0.0,0 STARLINK-3084,1 49136U 21082G   22278.87007187 -.00001715  00000-0 -13600-3 0  9994,2 49136  70.0006 188.2097 0003429 237.8140 122.2687 14.98330426 59121,6950.191999999999,96.107,574.44,569.673,0.0
49136.0,STARLINK-3084,PAYLOAD,2022-10-06 03:17:26,14.98324651,0.0003525,70.0005,187.5362,236.1489,123.9335,-6.7875e-06,-1.74e-06,0.0,0 STARLINK-3084,1 49136U 21082G   22279.13711437 -.00000174  00000-0 -67875-5 0  9997,2 49136  70.0005 187.5362 0003525 236.1489 123.9335 14.98324651 59167,6950.209,96.107,574.524,569.624,0.0
49136.0,STARLINK-3084,PAYLOAD,2022-10-06 11:18:06,14.98341634,0.0003067,69.9996,186.6942,244.617,115.4672,-0.00015986,-2e-05,0.0,0 STARLINK-3084,1 49136U 21082G   22279.47090682 -.00002000  00000-0 -15986-3 0  9990,2 49136  69.9996 186.6942 0003067 244.6170 115.4672 14.98341634 59215,6950.156999999997,96.106,574.154,569.89,0.0
49136.0,STARLINK-3084,PAYLOAD,2022-10-06 19:18:46,14.98330625,0.0003266,70.0011,185.8539,243.1421,116.9405,0.00034584,4.036e-05,0.0,0 STARLINK-3084,1 49136U 21082G   22279.80470326  .00004036  00000-0  34584-3 0  9998,2 49136  70.0011 185.8539 0003266 243.1421 116.9405 14.98330625 59266,6950.191,96.107,574.326,569.786,0.0
